[{"OBJECT_NAME":"GEESAT-2 04","OBJECT_ID":"2024-023D","EPOCH":"2026-03-09T22:58:49.443744","MEAN_MOTION":14.96681304,"ECCENTRICITY":0.00064656,"INCLINATION":49.992,"RA_OF_ASC_NODE":72.838,"ARG_OF_PERICENTER":6.7244,"MEAN_ANOMALY":353.3785,"EPHEMERIS_TYPE":0,"CLASSIFICATION_TYPE":"U","NORAD_CAT_ID":58908,"ELEMENT_SET_NO":999,"REV_AT_EPOCH":11446,"BSTAR":0.0002767609,"MEAN_MOTION_DOT":2.943e-5,"MEAN_MOTION_DDOT":0},{"OBJECT_NAME":"STARLINK-36265","OBJECT_ID":"2025-304S","EPOCH":"2026-03-09T16:54:06.355008","MEAN_MOTION":14.98297439,"ECCENTRICITY":0.00044471,"INCLINATION":70.002,"RA_OF_ASC_NODE":174.5517,"ARG_OF_PERICENTER":251.031,"MEAN_ANOMALY":109.0367,"EPHEMERIS_TYPE":0,"CLASSIFICATION_TYPE":"U","NORAD_CAT_ID":67208,"ELEMENT_SET_NO":999,"REV_AT_EPOCH":1388,"BSTAR":-0.0010792203,"MEAN_MOTION_DOT":-0.00012937,"MEAN_MOTION_DDOT":0}]
